[{"OBJECT_NAME":"STARLINK-4405","OBJECT_ID":"2022-084N","EPOCH":"2026-03-09T18:17:35.856384","MEAN_MOTION":15.05657021,"ECCENTRICITY":9.195e-5,"INCLINATION":97.6025,"RA_OF_ASC_NODE":131.3419,"ARG_OF_PERICENTER":102.1471,"MEAN_ANOMALY":257.9859,"EPHEMERIS_TYPE":0,"CLASSIFICATION_TYPE":"U","NORAD_CAT_ID":53201,"ELEMENT_SET_NO":999,"REV_AT_EPOCH":19939,"BSTAR":0.00030510014,"MEAN_MOTION_DOT":4.345e-5,"MEAN_MOTION_DDOT":0},{"OBJECT_NAME":"CZ-6A DEB","OBJECT_ID":"2024-140DH","EPOCH":"2026-03-09T14:42:58.375296","MEAN_MOTION":14.89586287,"ECCENTRICITY":0.0114118,"INCLINATION":89.149,"RA_OF_ASC_NODE":291.0293,"ARG_OF_PERICENTER":161.7952,"MEAN_ANOMALY":198.7416,"EPHEMERIS_TYPE":0,"CLASSIFICATION_TYPE":"U","NORAD_CAT_ID":60704,"ELEMENT_SET_NO":999,"REV_AT_EPOCH":8478,"BSTAR":0.0015025,"MEAN_MOTION_DOT":0.00016252,"MEAN_MOTION_DDOT":0}]
